NORAD_CAT_ID,OBJECT_NAME,OBJECT_TYPE,EPOCH,MEAN_MOTION,ECCENTRICITY,INCLINATION,RA_OF_ASC_NODE,ARG_OF_PERICENTER,MEAN_ANOMALY,BSTAR,MEAN_MOTION_DOT,MEAN_MOTION_DDOT,TLE_LINE0,TLE_LINE1,TLE_LINE2,SEMIMAJOR_AXIS,PERIOD,APOGEE,PERIGEE,DECAYED
49415.0,STARLINK-3159,PAYLOAD,2024-05-14 21:55:46,15.08872888,0.0001484,53.2167,318.9292,82.3571,277.7589,0.00034698,5.243e-05,0.0,0 STARLINK-3159,1 49415U 21104H   24135.91373095  .00005243  00000-0  34698-3 0  9990,2 49415  53.2167 318.9292 0001484  82.3571 277.7589 15.08872888138558,6917.78,95.435,540.671,538.618,0.0
49415.0,STARLINK-3159,PAYLOAD,2024-05-15 18:35:47,15.08853165,0.0001425,53.2162,315.0621,83.9788,276.1366,2.0113e-05,3.2e-07,0.0,0 STARLINK-3159,1 49415U 21104H   24136.77484970  .00000032  00000-0  20113-4 0  9999,2 49415  53.2162 315.0621 0001425  83.9788 276.1366 15.08853165139777,6917.84,95.437,540.691,538.719,0.0
49415.0,STARLINK-3159,PAYLOAD,2024-05-16 12:05:00,15.08864313,0.0001517,53.217,311.789,91.4874,268.6292,0.00026584,3.948e-05,0.0,0 STARLINK-3159,1 49415U 21104H   24137.50348011  .00003948  00000-0  26584-3 0  9992,2 49415  53.2170 311.7890 0001517  91.4874 268.6292 15.08864313138791,6917.806,95.436,540.721,538.622,0.0
49415.0,STARLINK-3159,PAYLOAD,2024-05-16 21:37:19,15.08860542,7.29e-05,53.2179,310.0076,93.976,266.1316,0.00045206,6.918e-05,0.0,0 STARLINK-3159,1 49415U 21104H   24137.90091788  .00006918  00000-0  45206-3 0  9994,2 49415  53.2179 310.0076 0000729  93.9760 266.1316 15.08860542138850,6917.818,95.436,540.187,539.178,0.0
49415.0,STARLINK-3159,PAYLOAD,2024-05-17 03:58:52,15.08832416,0.0001626,53.218,308.8173,91.801,268.3168,-0.0003055,-5.146e-05,0.0,0 STARLINK-3159,1 49415U 21104H   24138.16588887 -.00005146  00000-0 -30550-3 0  9994,2 49415  53.2180 308.8173 0001626  91.8010 268.3168 15.08832416139980,6917.904,95.438,540.893,538.644,0.0
49415.0,STARLINK-3159,PAYLOAD,2024-05-17 11:55:48,15.08827831,0.0001619,53.2168,307.3319,94.4634,265.6543,-0.00029916,-5.044e-05,0.0,0 STARLINK-3159,1 49415U 21104H   24138.49709062 -.00005044  00000-0 -29916-3 0  9991,2 49415  53.2168 307.3319 0001619  94.4634 265.6543 15.08827831138942,6917.918,95.438,540.903,538.663,0.0
49415.0,STARLINK-3159,PAYLOAD,2024-05-17 18:17:21,15.08842167,0.0002323,53.2168,306.1401,83.2798,276.8458,0.00026604,3.949e-05,0.0,0 STARLINK-3159,1 49415U 21104H   24138.76205069  .00003949  00000-0  26604-3 0  9990,2 49415  53.2168 306.1401 0002323  83.2798 276.8458 15.08842167140076,6917.874,95.437,541.346,538.132,0.0
49415.0,STARLINK-3159,PAYLOAD,2024-05-18 03:49:40,15.08841395,0.0001163,53.215,304.3568,76.3756,283.7365,0.00047059,7.21e-05,0.0,0 STARLINK-3159,1 49415U 21104H   24139.15949147  .00007210  00000-0  47059-3 0  9998,2 49415  53.2150 304.3568 0001163  76.3756 283.7365 15.08841395140132,6917.876,95.437,540.546,538.937,0.0
49415.0,STARLINK-3159,PAYLOAD,2024-05-18 14:57:21,15.08851395,0.0001226,53.2114,302.2762,82.0527,278.0604,0.00068419,0.00010621,0.0,0 STARLINK-3159,1 49415U 21104H   24139.62316937  .00010621  00000-0  68419-3 0  9998,2 49415  53.2114 302.2762 0001226  82.0527 278.0604 15.08851395139115,6917.846,95.437,540.559,538.862,0.0
49415.0,STARLINK-3159,PAYLOAD,2024-05-18 18:08:07,15.08875711,0.0001017,53.2155,301.6805,66.987,293.1229,0.001294,0.00020386,0.0,0 STARLINK-3159,1 49415U 21104H   24139.75564402  .00020386  00000-0  12940-2 0  9990,2 49415  53.2155 301.6805 0001017  66.9870 293.1229 15.08875711140224,6917.771,95.435,540.34,538.933,0.0
49415.0,STARLINK-3159,PAYLOAD,2024-05-18 21:18:53,15.08883403,0.0001188,53.2165,301.0857,71.5754,288.5367,0.0013194,0.00020798,0.0,0 STARLINK-3159,1 49415U 21104H   24139.88811969  .00020798  00000-0  13194-2 0  9996,2 49415  53.2165 301.0857 0001188  71.5754 288.5367 15.08883403139156,6917.748,95.435,540.435,538.791,0.0
49415.0,STARLINK-3159,PAYLOAD,2024-05-19 03:40:26,15.0884605,0.0002172,53.217,299.893,64.5312,295.5905,-8.9335e-05,-1.71e-05,0.0,0 STARLINK-3159,1 49415U 21104H   24140.15308612 -.00001710  00000-0 -89335-4 0  9991,2 49415  53.2170 299.8930 0002172  64.5312 295.5905 15.08846050140283,6917.862,95.437,541.229,538.224,0.0
49415.0,STARLINK-3159,PAYLOAD,2024-05-19 19:34:18,15.08828127,9.92e-05,53.2155,296.923,78.6933,281.417,-0.0001196,-2.19e-05,0.0,0 STARLINK-3159,1 49415U 21104H   24140.81549538 -.00002190  00000-0 -11960-3 0  9999,2 49415  53.2155 296.9230 0000992  78.6933 281.4170 15.08828127140384,6917.917,95.438,540.468,539.095,0.0
49415.0,STARLINK-3159,PAYLOAD,2024-05-20 14:38:57,15.08839035,0.0001047,53.2157,293.3537,88.7819,271.3293,0.0006524,0.0001011,0.0,0 STARLINK-3159,1 49415U 21104H   24141.61038211  .00010110  00000-0  65240-3 0  9998,2 49415  53.2157 293.3537 0001047  88.7819 271.3293 15.08839035139410,6917.883,95.438,540.473,539.024,0.0
49415.0,STARLINK-3159,PAYLOAD,2024-05-20 19:25:06,15.08863952,0.0001437,53.2162,292.4619,63.4534,296.6605,0.0016158,0.00025538,0.0,0 STARLINK-3159,1 49415U 21104H   24141.80910109  .00025538  00000-0  16158-2 0  9997,2 49415  53.2162 292.4619 0001437  63.4534 296.6605 15.08863952140531,6917.807,95.436,540.666,538.678,0.0
49415.0,STARLINK-3159,PAYLOAD,2024-05-21 14:29:43,15.08849255,0.0002015,53.217,288.8895,128.3407,231.7767,0.001152,0.00018098,0.0,0 STARLINK-3159,1 49415U 21104H   24142.60397945  .00018098  00000-0  11520-2 0  9994,2 49415  53.2170 288.8895 0002015 128.3407 231.7767 15.08849255139568,6917.852,95.437,541.111,538.323,0.0
49415.0,STARLINK-3159,PAYLOAD,2024-05-21 16:05:06,15.08856201,0.0001281,53.218,288.5852,116.6801,243.4322,0.00059265,9.161e-05,0.0,0 STARLINK-3159,1 49415U 21104H   24142.67021682  .00009161  00000-0  59265-3 0  9993,2 49415  53.2180 288.5852 0001281 116.6801 243.4322 15.08856201140660,6917.831,95.437,540.582,538.81,0.0
49415.0,STARLINK-3159,PAYLOAD,2024-05-22 09:34:21,15.08860657,0.0001593,53.2163,285.3308,53.676,306.4379,0.00076629,0.00011935,0.0,0 STARLINK-3159,1 49415U 21104H   24143.39885761  .00011935  00000-0  76629-3 0  9994,2 49415  53.2163 285.3308 0001593  53.6760 306.4379 15.08860657140776,6917.817,95.436,540.784,538.58,0.0
49415.0,STARLINK-3159,PAYLOAD,2024-05-23 12:35:54,15.08849025,0.000113,53.2172,280.2697,57.8045,302.3056,0.0007551,0.00011753,0.0,0 STARLINK-3159,1 49415U 21104H   24144.52493903  .00011753  00000-0  75510-3 0  9999,2 49415  53.2172 280.2697 0001130  57.8045 302.3056 15.08849025140942,6917.853,95.437,540.5,538.936,0.0
49415.0,STARLINK-3159,PAYLOAD,2024-05-23 14:11:17,15.08846279,0.0001008,53.2166,279.9715,84.0825,276.0282,0.00056732,8.754e-05,0.0,0 STARLINK-3159,1 49415U 21104H   24144.59117793  .00008754  00000-0  56732-3 0  9998,2 49415  53.2166 279.9715 0001008  84.0825 276.0282 15.08846279139868,6917.861,95.437,540.424,539.029,0.0
49415.0,STARLINK-3159,PAYLOAD,2024-05-23 18:57:27,15.08844449,0.0001077,53.217,279.0851,64.0835,296.0268,0.00043051,6.571e-05,0.0,0 STARLINK-3159,1 49415U 21104H   24144.78989891  .00006571  00000-0  43051-3 0  9990,2 49415  53.2170 279.0851 0001077  64.0835 296.0268 15.08844449139896,6917.867,95.437,540.477,538.987,0.0
49415.0,STARLINK-3159,PAYLOAD,2024-05-24 12:26:42,15.08831861,0.0001413,53.2164,275.809,109.8539,250.2606,0.00020701,3.007e-05,0.0,0 STARLINK-3159,1 49415U 21104H   24145.51854443  .00003007  00000-0  20701-3 0  9994,2 49415  53.2164 275.8090 0001413 109.8539 250.2606 15.08831861141098,6917.905,95.438,540.748,538.793,0.0
49415.0,STARLINK-3159,PAYLOAD,2024-05-24 14:02:05,15.08849949,0.0001047,53.216,275.5159,76.5887,283.5222,0.00048335,7.415e-05,0.0,0 STARLINK-3159,1 49415U 21104H   24145.58478208  .00007415  00000-0  48335-3 0  9992,2 49415  53.2160 275.5159 0001047  76.5887 283.5222 15.08849949140016,6917.85,95.437,540.439,538.991,0.0
49415.0,STARLINK-3159,PAYLOAD,2024-05-24 15:37:28,15.08852482,0.0001139,53.2166,275.2187,100.0087,260.1034,0.00044788,6.85e-05,0.0,0 STARLINK-3159,1 49415U 21104H   24145.65101955  .00006850  00000-0  44788-3 0  9992,2 49415  53.2166 275.2187 0001139 100.0087 260.1034 15.08852482141117,6917.842,95.437,540.495,538.919,0.0
49415.0,STARLINK-3159,PAYLOAD,2024-05-25 01:09:34,15.09164098,0.0006144,53.216,273.4325,260.6227,99.4071,0.0063011,0.0010239,0.0,0 STARLINK-3159,1 49415U 21104H   24146.04832108  .00102390  00000-0  63011-2 0  9992,2 49415  53.2160 273.4325 0006144 260.6227  99.4071 15.09164098141175,6916.89,95.417,543.005,534.505,0.0
49415.0,STARLINK-3159,PAYLOAD,2024-05-25 14:00:01,15.08900178,0.0001282,53.2171,271.0326,73.5668,313.4989,-0.0075208,-0.00118216,0.0,0 STARLINK-3159,1 49415U 21104H   24146.58334491 -.00118216  00000-0 -75208-2 0  9990,2 49415  53.2171 271.0326 0001282  73.5668 313.4989 15.08900178141263,6917.696,95.434,540.448,538.675,0.0
49415.0,STARLINK-3159,PAYLOAD,2024-05-25 18:39:01,15.08846925,0.000128,53.2167,270.1615,93.6858,266.4281,0.00033613,5.067e-05,0.0,0 STARLINK-3159,1 49415U 21104H   24146.77710271  .00005067  00000-0  33613-3 0  9997,2 49415  53.2167 270.1615 0001280  93.6858 266.4281 15.08846925141284,6917.859,95.437,540.61,538.839,0.0
49415.0,STARLINK-3159,PAYLOAD,2024-05-26 12:08:16,15.08842796,0.0001162,53.2165,266.8889,88.3373,271.7752,5.0753e-05,5.2e-06,0.0,0 STARLINK-3159,1 49415U 21104H   24147.50574764  .00000520  00000-0  50753-4 0  9998,2 49415  53.2165 266.8889 0001162  88.3373 271.7752 15.08842796141395,6917.872,95.437,540.541,538.933,0.0
49415.0,STARLINK-3159,PAYLOAD,2024-05-26 13:43:39,15.08842521,0.0001353,53.217,266.5926,100.3597,259.7548,9.3631e-05,1.203e-05,0.0,0 STARLINK-3159,1 49415U 21104H   24147.57198568  .00001203  00000-0  93631-4 0  9990,2 49415  53.2170 266.5926 0001353 100.3597 259.7548 15.08842521140311,6917.873,95.437,540.674,538.802,0.0
49415.0,STARLINK-3159,PAYLOAD,2024-05-26 15:19:02,15.08847859,0.0001185,53.2169,266.2994,91.3239,268.7889,0.00022436,3.285e-05,0.0,0 STARLINK-3159,1 49415U 21104H   24147.63822476  .00003285  00000-0  22436-3 0  9995,2 49415  53.2169 266.2994 0001185  91.3239 268.7889 15.08847859140324,6917.856,95.437,540.541,538.902,0.0
